NORAD_CAT_ID,OBJECT_NAME,OBJECT_TYPE,EPOCH,MEAN_MOTION,ECCENTRICITY,INCLINATION,RA_OF_ASC_NODE,ARG_OF_PERICENTER,MEAN_ANOMALY,BSTAR,MEAN_MOTION_DOT,MEAN_MOTION_DDOT,TLE_LINE0,TLE_LINE1,TLE_LINE2,SEMIMAJOR_AXIS,PERIOD,APOGEE,PERIGEE,DECAYED
50166.0,STARLINK-3305,PAYLOAD,2022-01-29 22:00:00,15.73203822,0.000183,53.2179,155.8221,34.3767,235.5451,0.00017095,0.00023443,0.0,0 STARLINK-3305,1 50166U 21125L   22029.91667824  .00023443  00000-0  17095-3 0  9998,2 50166  53.2179 155.8221 0001830  34.3767 235.5451 15.73203822  3701,6727.884,91.533,350.98,348.51800000000014,0.0
50166.0,STARLINK-3305,PAYLOAD,2022-01-30 14:00:01,15.73223644,0.0001833,53.2173,152.5236,34.7917,53.0036,-0.00084943,-0.00118299,0.0,0 STARLINK-3305,1 50166U 21125L   22030.58334491 -.00118299  00000-0 -84943-3 0  9996,2 50166  53.2173 152.5236 0001833  34.7917  53.0036 15.73223644  6999,6727.828,91.532,350.926,348.46,0.0
50166.0,STARLINK-3305,PAYLOAD,2022-01-30 22:00:00,15.73166829,0.0001973,53.2161,150.8743,36.3108,140.4029,0.00014673,0.00019993,0.0,0 STARLINK-3305,1 50166U 21125L   22030.91667824  .00019993  00000-0  14673-3 0  9994,2 50166  53.2161 150.8743 0001973  36.3108 140.4029 15.73166829  7057,6727.99,91.535,351.182,348.527,0.0
50166.0,STARLINK-3305,PAYLOAD,2022-01-31 14:00:01,15.7323423,0.0002023,53.2169,147.5753,33.9796,320.6281,-0.00046739,-0.00065807,0.0,0 STARLINK-3305,1 50166U 21125L   22031.58335648 -.00065807  00000-0 -46739-3 0  9999,2 50166  53.2169 147.5753 0002023  33.9796 320.6281 15.73234230  3692,6727.7980000000025,91.531,351.024,348.302,0.0
50166.0,STARLINK-3305,PAYLOAD,2022-01-31 22:00:01,15.73205176,0.0002018,53.2167,145.9257,28.8757,54.6604,0.00015546,0.00021258,0.0,0 STARLINK-3305,1 50166U 21125L   22031.91668981  .00021258  00000-0  15546-3 0  9997,2 50166  53.2167 145.9257 0002018  28.8757  54.6604 15.73205176  7206,6727.88,91.533,351.103,348.38800000000015,0.0
50166.0,STARLINK-3305,PAYLOAD,2022-02-01 14:00:01,15.73165272,0.0002115,53.2168,142.6275,29.8485,231.6031,-0.00015966,-0.00022936,0.0,0 STARLINK-3305,1 50166U 21125L   22032.58335648 -.00022936  00000-0 -15966-3 0  9994,2 50166  53.2168 142.6275 0002115  29.8485 231.6031 15.73165272  7313,6727.994000000002,91.535,351.282,348.436,0.0
50166.0,STARLINK-3305,PAYLOAD,2022-02-01 22:00:00,15.73188956,0.0002109,53.2168,140.9778,27.9099,322.3437,-0.00016408,-0.00023575,0.0,0 STARLINK-3305,1 50166U 21125L   22032.91667824 -.00023575  00000-0 -16408-3 0  9997,2 50166  53.2168 140.9778 0002109  27.9099 322.3437 15.73188956  3694,6727.927,91.534,351.211,348.37300000000016,0.0
50166.0,STARLINK-3305,PAYLOAD,2022-02-02 06:00:00,15.73205963,0.0002139,53.2174,139.3058,34.3492,44.6278,-1.9298e-05,-3.33e-05,0.0,0 STARLINK-3305,1 50166U 21125L   22033.25001157 -.00003330  00000-0 -19298-4 0  9994,2 50166  53.2174 139.3058 0002139  34.3492  44.6278 15.73205963  7415,6727.878000000002,91.533,351.182,348.30400000000014,0.0
50166.0,STARLINK-3305,PAYLOAD,2022-02-02 14:00:01,15.73231702,0.0002321,53.2173,137.6793,31.0982,136.9999,9.5608e-05,0.00012836,0.0,0 STARLINK-3305,1 50166U 21125L   22033.58334491  .00012836  00000-0  95608-4 0  9998,2 50166  53.2173 137.6793 0002321  31.0982 136.9999 15.73231702  7473,6727.805,91.531,351.231,348.108,0.0
50166.0,STARLINK-3305,PAYLOAD,2022-02-02 22:00:00,15.73255314,0.0002251,53.217,136.0292,27.8124,229.2597,-0.00049411,-0.00069568,0.0,0 STARLINK-3305,1 50166U 21125L   22033.91667824 -.00069568  00000-0 -49411-3 0  9990,2 50166  53.2170 136.0292 0002251  27.8124 229.2597 15.73255314  3695,6727.736999999999,91.53,351.117,348.088,0.0
50166.0,STARLINK-3305,PAYLOAD,2022-02-03 14:00:01,15.73217174,0.0002379,53.2168,132.7311,28.4298,46.5857,-0.00052554,-0.00073799,0.0,0 STARLINK-3305,1 50166U 21125L   22034.58334491 -.00073799  00000-0 -52554-3 0  9998,2 50166  53.2168 132.7311 0002379  28.4298  46.5857 15.73217174  7625,6727.846,91.532,351.31199999999984,348.111,0.0
50166.0,STARLINK-3305,PAYLOAD,2022-02-03 22:00:01,15.73210953,0.0002343,53.2165,131.0807,26.3744,137.6479,0.00013928,0.0001898,0.0,0 STARLINK-3305,1 50166U 21125L   22034.91668981  .00018980  00000-0  13928-3 0  9990,2 50166  53.2165 131.0807 0002343  26.3744 137.6479 15.73210953  7684,6727.864000000001,91.533,351.305,348.153,0.0
50166.0,STARLINK-3305,PAYLOAD,2022-02-04 14:00:01,15.73245122,0.000241,53.2169,127.7822,22.0228,319.945,-0.00070673,-0.00098856,0.0,0 STARLINK-3305,1 50166U 21125L   22035.58335648 -.00098856  00000-0 -70673-3 0  9997,2 50166  53.2169 127.7822 0002410  22.0228 319.9450 15.73245122  3701,6727.767,91.531,351.25300000000016,348.01,0.0
50166.0,STARLINK-3305,PAYLOAD,2022-02-04 22:00:00,15.73213226,0.000237,53.2165,126.1317,18.3687,52.4772,-0.0010525,-0.00145908,0.0,0 STARLINK-3305,1 50166U 21125L   22035.91667824 -.00145908  00000-0 -10525-2 0  9998,2 50166  53.2165 126.1317 0002370  18.3687  52.4772 15.73213226  7835,6727.857,91.532,351.31699999999995,348.12800000000016,0.0
50166.0,STARLINK-3305,PAYLOAD,2022-02-05 06:00:00,15.7251521,0.0002206,53.217,124.4637,28.8838,130.8804,0.0074271999999999,0.01114888,0.0,0 STARLINK-3305,1 50166U 21125L   22036.25001157  .01114888  00000-0  74272-2 0  9998,2 50166  53.2170 124.4637 0002206  28.8838 130.8804 15.72515210  7899,6729.848000000001,91.573,353.1980000000001,350.22900000000016,0.0
50166.0,STARLINK-3305,PAYLOAD,2022-02-05 14:00:01,15.73251351,0.0002321,53.2167,122.8255,14.0339,234.5998,-0.0019531,-0.00266855,0.0,0 STARLINK-3305,1 50166U 21125L   22036.58334491 -.00266855  00000-0 -19531-2 0  9994,2 50166  53.2167 122.8255 0002321  14.0339 234.5998 15.73251351  7940,6727.749,91.53,351.175,348.052,0.0
50166.0,STARLINK-3305,PAYLOAD,2022-02-05 22:00:01,15.72809074,0.0002383,53.2169,121.1661,18.0724,319.5747,0.00040082,0.00055071,0.0,0 STARLINK-3305,1 50166U 21125L   22036.91668981  .00055071  00000-0  40082-3 0  9995,2 50166  53.2169 121.1661 0002383  18.0724 319.5747 15.72809074  7996,6729.01,91.556,352.478,349.271,0.0
50166.0,STARLINK-3305,PAYLOAD,2022-02-06 06:00:00,15.72916049,0.0002499,53.2175,119.5087,14.8146,51.2644,-0.0051331,-0.00659337,0.0,0 STARLINK-3305,1 50166U 21125L   22037.25001157 -.00659337  00000-0 -51331-2 0  9994,2 50166  53.2175 119.5087 0002499  14.8146  51.2644 15.72916049  8040,6728.705,91.55,352.251,348.88800000000015,0.0
50166.0,STARLINK-3305,PAYLOAD,2022-02-06 14:00:01,15.72449879,0.0002413,53.2175,117.8609,20.7729,133.6744,-0.0052422,-0.00659943,0.0,0 STARLINK-3305,1 50166U 21125L   22037.58335648 -.00659943  00000-0 -52422-2 0  9990,2 50166  53.2175 117.8609 0002413  20.7729 133.6744 15.72449879  3683,6730.035,91.577,353.524,350.276,0.0
50166.0,STARLINK-3305,PAYLOAD,2022-02-06 22:00:00,15.71986732,0.0002219,53.2175,116.2109,22.4663,219.6588,-0.0054027,-0.00666265,0.0,0 STARLINK-3305,1 50166U 21125L   22037.91667824 -.00666265  00000-0 -54027-2 0  9999,2 50166  53.2175 116.2109 0002219  22.4663 219.6588 15.71986732  3685,6731.356,91.604,354.715,351.728,0.0
50166.0,STARLINK-3305,PAYLOAD,2022-02-07 06:00:00,15.71515604,0.000241,53.2177,114.5629,359.3204,329.9891,-0.0054303,-0.00657142,0.0,0 STARLINK-3305,1 50166U 21125L   22038.25001157 -.00657142  00000-0 -54303-2 0  9999,2 50166  53.2177 114.5629 0002410 359.3204 329.9891 15.71515604  8202,6732.7019999999975,91.631,356.189,352.944,0.0
50166.0,STARLINK-3305,PAYLOAD,2022-02-07 14:00:01,15.71056242,0.0002775,53.2175,112.9186,315.9399,99.9881,-0.0056577,-0.0067048,0.0,0 STARLINK-3305,1 50166U 21125L   22038.58334491 -.00670480  00000-0 -56577-2 0  9990,2 50166  53.2175 112.9186 0002775 315.9399  99.9881 15.71056242  3696,6734.014,91.658,357.74800000000016,354.01,0.0
50166.0,STARLINK-3305,PAYLOAD,2022-02-07 22:00:00,15.705909699999998,0.0004392,53.2174,111.2718,300.1043,201.8861,-0.0057962,-0.00673755,0.0,0 STARLINK-3305,1 50166U 21125L   22038.91667824 -.00673755  00000-0 -57962-2 0  9993,2 50166  53.2174 111.2718 0004392 300.1043 201.8861 15.70590970  3701,6735.344,91.685,360.167,354.251,0.0
50166.0,STARLINK-3305,PAYLOAD,2022-02-08 14:00:01,15.69642851,0.0002803,53.2175,107.9864,284.4737,27.9619,-0.0057686,-0.00646104,0.0,0 STARLINK-3305,1 50166U 21125L   22039.58334491 -.00646104  00000-0 -57686-2 0  9999,2 50166  53.2175 107.9864 0002803 284.4737  27.9619 15.69642851  8410,6738.056,91.741,361.81,358.032,0.0
50166.0,STARLINK-3305,PAYLOAD,2022-02-08 22:00:01,15.69186072,0.0001743,53.2176,106.3428,280.2105,116.6677,-0.0060435,-0.00662564,0.0,0 STARLINK-3305,1 50166U 21125L   22039.91668981 -.00662564  00000-0 -60435-2 0  9994,2 50166  53.2176 106.3428 0001743 280.2105 116.6677 15.69186072  3700,6739.363,91.767,362.403,360.05400000000014,0.0
50166.0,STARLINK-3305,PAYLOAD,2022-02-09 13:08:02,15.69058175,0.0003314,53.2161,103.2758,286.1361,73.9292,-0.0029131,-0.00330909,0.0,0 STARLINK-3305,1 50166U 21125L   22040.54724605 -.00330909  00000-0 -29131-2 0  9994,2 50166  53.2161 103.2758 0003314 286.1361  73.9292 15.69058175 11654,6739.73,91.775,363.828,359.361,0.0
50166.0,STARLINK-3305,PAYLOAD,2022-02-09 14:00:01,15.68248254,0.0001318,53.2175,103.0643,59.3293,144.5618,-0.0062069,-0.00655069,0.0,0 STARLINK-3305,1 50166U 21125L   22040.58334491 -.00655069  00000-0 -62069-2 0  9992,2 50166  53.2175 103.0643 0001318  59.3293 144.5618 15.68248254  8578,6742.05,91.822,364.804,363.026,0.0
50166.0,STARLINK-3305,PAYLOAD,2022-02-10 12:05:11,15.67602654,0.0002514,53.2159,98.5786,309.5995,50.48,-0.003266,-0.00348581,0.0,0 STARLINK-3305,1 50166U 21125L   22041.50360957 -.00348581  00000-0 -32660-2 0  9993,2 50166  53.2159  98.5786 0002514 309.5995  50.4800 15.67602654 11809,6743.901,91.86,367.461,364.071,0.0
50166.0,STARLINK-3305,PAYLOAD,2022-02-10 14:00:01,15.66847922,0.000108,53.2173,98.1526,74.4674,15.9007,-0.0065628999999999,-0.00654046,0.0,0 STARLINK-3305,1 50166U 21125L   22041.58335648 -.00654046  00000-0 -65629-2 0  9997,2 50166  53.2173  98.1526 0001080  74.4674  15.9007 15.66847922  8722,6746.066,91.904,368.66,367.203,0.0
